[Satellite]
VERSION=1.1
NAME=THOR 5
NICKNAME=THOR 5
TLE1=1 32487U 08006A   15052.79946308 -.00000034  00000-0  00000+0 0  9994
TLE2=2 32487   0.0509 262.9641 0002088  76.6784  98.7578  1.00271469 25737
